[{"OBJECT_NAME":"STARLINK-2036","OBJECT_ID":"2021-012AJ","EPOCH":"2026-03-10T00:00:02.999808","MEAN_MOTION":15.43145644,"ECCENTRICITY":0.00019859,"INCLINATION":53.161,"RA_OF_ASC_NODE":63.0833,"ARG_OF_PERICENTER":97.7885,"MEAN_ANOMALY":132.9108,"EPHEMERIS_TYPE":0,"CLASSIFICATION_TYPE":"U","NORAD_CAT_ID":47652,"ELEMENT_SET_NO":999,"REV_AT_EPOCH":585,"BSTAR":0.0033754047,"MEAN_MOTION_DOT":0.00154499,"MEAN_MOTION_DDOT":0},{"OBJECT_NAME":"YAOGAN-36 02C","OBJECT_ID":"2022-133D","EPOCH":"2026-03-09T22:41:07.429632","MEAN_MOTION":15.41431359,"ECCENTRICITY":0.00103682,"INCLINATION":34.992,"RA_OF_ASC_NODE":359.2897,"ARG_OF_PERICENTER":349.9139,"MEAN_ANOMALY":10.1372,"EPHEMERIS_TYPE":0,"CLASSIFICATION_TYPE":"U","NORAD_CAT_ID":54045,"ELEMENT_SET_NO":999,"REV_AT_EPOCH":18986,"BSTAR":0.0009702483,"MEAN_MOTION_DOT":0.00042016,"MEAN_MOTION_DDOT":0}]
